#aV2013  2 22  0  0  0.00000000     288 DD+AD WGS84 FIT  NGA
## 1728 432000.00000000   300.00000000 56345 0.0000000000000
+   31     1  2  3  4  5  6  7  8  9 10 11 12 13 14 15 16 17
+         18 19 20 21 22 23 24 25 26 28 29 30 31 32  0  0  0
+          0  0  0  0  0  0  0  0  0  0  0  0  0  0  0  0  0
+          0  0  0  0  0  0  0  0  0  0  0  0  0  0  0  0  0
+          0  0  0  0  0  0  0  0  0  0  0  0  0  0  0  0  0
++         2  2  2  2  2  2  2  2  2  2  2  2  2  2  2  2  2
++         2  2  2  2  2  2  2  2  2  2  2  2  2  2  2  0  0
++         0  0  0  0  0  0  0  0  0  0  0  0  0  0  0  0  0
++         0  0  0  0  0  0  0  0  0  0  0  0  0  0  0  0  0
++         0  0  0  0  0  0  0  0  0  0  0  0  0  0  0  0  0
%c cc cc ccc ccc cccc cccc cccc cccc ccccc ccccc ccccc ccccc
%c cc cc ccc ccc cccc cccc cccc cccc ccccc ccccc ccccc ccccc
%f  0.0000000  0.000000000  0.00000000000  0.000000000000000
%f  0.0000000  0.000000000  0.00000000000  0.000000000000000
%i    0    0    0    0      0      0      0      0         0
%i    0    0    0    0      0      0      0      0         0
/*      NGA, ST. LOUIS,MO.                                  
/*   EPHEMERIS COMPUTED FROM  1 DAYS OF DATA
/*   EPOCHA SMOOTHER  
/* CCCCCCCCCCCCCCCCCCCCCCCCCCCCCCCCCCCCCCCCCCCCCCCCCCCCCCCCC
*  2013  2 22  3 35  0.00000000                                                 
P  1  11212.359247 -21113.677928 -11517.695028      2.253768                    
V  1  12455.396079  -8038.679670  26977.920964      0.027845                    
P  2 -21735.832080  11899.945275  -8631.438659    419.535014                    
V  2   5756.295298 -10500.469323 -28887.526558      0.015482                    
P  3  12563.051325 -10009.649745  20619.393684    171.630395                    
V  3  10392.288597  25462.760635   6114.010471      0.050022                    
P  4 -19632.595744   -196.652207 -18294.303250    141.684513                    
V  4  15573.627128 -16512.687912 -16507.054299      0.110695                    
P  5 -20892.390777   5146.515017  15628.578013   -384.861500                    
V  5 -18315.463386  -8018.825367 -21659.605623     -0.017598                    
P  6  15452.522904  -3015.088071  21496.016613    341.466694                    
V  6   7417.203369  26106.881641  -1330.206479     -0.146851                    
P  7  -3087.689811 -16088.497883  20884.449792    183.419882                    
V  7  20450.100160 -16792.775817 -10210.808691      0.043250                    
P  8 -12905.153208  -8079.567549  21945.672781      4.764823                    
V  8  22111.385665 -16229.639993   6492.720869      0.001810                    
P  9 -21287.328140  14799.709982   5311.519265    222.306464                    
V  9   4076.313789  -6536.631964  31295.493303      0.025945                    
P 10 -25445.089180  -8353.348440    326.927372    -70.759795                    
V 10    250.587066  -3087.901345 -31099.658390     -0.013437                    
P 11  11659.598810 -23588.747757  -2685.176852   -355.862410                    
V 11   6011.588110    131.582526  30000.465263     -0.036599                    
P 12  -4749.124456  13958.527396 -22112.539595    119.178870                    
V 12 -26353.812582  -9345.143120    -40.230254      0.020418                    
P 13  -3693.553778 -26215.046852    921.737338    142.900453                    
V 13   2055.422756  -1593.131206 -32281.831949     -0.029334                    
P 14  13731.122204  15182.815239 -16807.901076    220.629217                    
V 14   1660.907403  21610.419404  20504.682972      0.002222                    
P 15  -6377.914910  20606.755466  15302.824281   -109.177339                    
V 15  -7196.560662 -18443.242677  22052.393692     -0.012846                    
P 16  21695.722124  -2787.825440  15290.712616   -252.458709                    
V 16  17588.178756   7936.655247 -23170.165071     -0.001431                    
P 17 -14695.086877 -13443.795756 -17477.406566     47.235326                    
V 17  -2446.337640 -22427.256358  18844.799944     -0.038488                    
P 18  16797.017351  16064.765105  13554.864123    240.599961                    
V 18 -16546.521396  -2538.673831  23858.756915      0.018740                    
P 19   9762.196896 -17606.657255  17027.685111   -350.668215                    
V 19   4690.900726  21521.355734  19878.017354     -0.032220                    
P 20   2650.672195 -15825.573500 -21347.429229     85.163262                    
V 20  25981.887223   6656.557361  -1648.172467      0.016154                    
P 21   8205.291605  14085.090981  21461.578020   -282.068565                    
V 21 -19836.454401  17092.424316  -4278.316024     -0.022375                    
P 22  24306.312403  10449.752624   3247.350119    159.163949                    
V 22  -4877.953828   2368.997683  30497.615509      0.009973                    
P 23    859.154368 -24984.618191  -8316.535825    111.576797                    
V 23   5142.724402   9927.137549 -29463.002173     -0.036958                    
P 24 -14026.071926  20942.209102  -8325.163019     -1.476742                    
V 24  -9576.649879   5228.475123  29329.004922     -0.006832                    
P 25   8217.813212  16357.999220 -19312.435935     72.217975                    
V 25 -23623.662631  -6148.975103 -15200.870634      0.030452                    
P 26 -12988.696095   8617.106319  20807.994751    -92.301811                    
V 26  -4299.346400 -27615.124842   8834.286620      0.141277                    
P 28 -22022.573318 -13489.724163   7187.081718    234.846060                    
V 28   8379.077782   1270.761308  30374.992477      0.034223                    
P 29   5207.820190  26046.285253   1142.914043    410.194524                    
V 29  -2364.888653   1801.317450 -31786.563412      0.035879                    
P 30  25969.638122   2080.591131   4753.778766   -220.346934                    
V 30   5773.363057   4036.978556 -31042.234347      0.075850                    
P 31  20784.166669  -3819.093771 -16078.590991    303.523485                    
V 31 -14641.456913  14555.600065 -21864.492949      0.016883                    
P 32  11392.076340 -11434.092559 -20862.648771   -537.574280                    
V 32  24500.463581  11308.999314   7639.228454     -0.032769                    
EOF
